NORAD_CAT_ID,OBJECT_NAME,OBJECT_TYPE,EPOCH,MEAN_MOTION,ECCENTRICITY,INCLINATION,RA_OF_ASC_NODE,ARG_OF_PERICENTER,MEAN_ANOMALY,BSTAR,MEAN_MOTION_DOT,MEAN_MOTION_DDOT,TLE_LINE0,TLE_LINE1,TLE_LINE2,SEMIMAJOR_AXIS,PERIOD,APOGEE,PERIGEE,DECAYED
50206.0,STARLINK-3258,PAYLOAD,2024-02-17 07:05:40,15.08852896,0.000144,53.2195,12.1523,97.4073,262.7083,0.00016495,2.339e-05,0.0,0 STARLINK-3258,1 50206U 21125BC  24048.29561279  .00002339  00000-0  16495-3 0  9998,2 50206  53.2195  12.1523 0001440  97.4073 262.7083 15.08852896121221,6917.841,95.437,540.702,538.71,0.0
50206.0,STARLINK-3258,PAYLOAD,2024-02-17 15:02:37,15.08846126,0.0001504,53.2204,10.6667,97.6272,262.4891,8.8351e-05,1.119e-05,0.0,0 STARLINK-3258,1 50206U 21125BC  24048.62681832  .00001119  00000-0  88351-4 0  9999,2 50206  53.2204  10.6667 0001504  97.6272 262.4891 15.08846126121276,6917.862,95.437,540.767,538.686,0.0
50206.0,STARLINK-3258,PAYLOAD,2024-02-17 21:24:10,15.08838148,0.0001298,53.2201,9.4779,98.3872,261.7268,9.759e-05,1.266e-05,0.0,0 STARLINK-3258,1 50206U 21125BC  24048.89178271  .00001266  00000-0  97590-4 0  9994,2 50206  53.2201   9.4779 0001298  98.3872 261.7268 15.08838148121317,6917.886,95.438,540.649,538.853,0.0
50206.0,STARLINK-3258,PAYLOAD,2024-02-18 06:56:27,15.08855628,0.0001561,53.2195,7.6915,110.0131,250.1029,7.6549e-05,9.31e-06,0.0,0 STARLINK-3258,1 50206U 21125BC  24049.28921152  .00000931  00000-0  76549-4 0  9991,2 50206  53.2195   7.6915 0001561 110.0131 250.1029 15.08855628121379,6917.833,95.437,540.777,538.618,0.0
50206.0,STARLINK-3258,PAYLOAD,2024-02-18 21:14:56,15.08847475,0.0001642,53.2197,5.0157,110.8604,249.2564,5.7656e-06,-1.96e-06,0.0,0 STARLINK-3258,1 50206U 21125BC  24049.88537823 -.00000196  00000-0  57656-5 0  9998,2 50206  53.2197   5.0157 0001642 110.8604 249.2564 15.08847475121468,6917.858,95.437,540.858,538.587,0.0
50206.0,STARLINK-3258,PAYLOAD,2024-02-19 03:36:28,15.08852712,0.0001403,53.2187,3.8256,98.3357,261.7794,5.9497e-05,6.59e-06,0.0,0 STARLINK-3258,1 50206U 21125BC  24050.15033274  .00000659  00000-0  59497-4 0  9998,2 50206  53.2187   3.8256 0001403  98.3357 261.7794 15.08852712121502,6917.842,95.437,540.677,538.736,0.0
50206.0,STARLINK-3258,PAYLOAD,2024-02-19 21:05:44,15.08832773,0.0001632,53.2187,0.5563,101.1464,258.9712,-3.8239e-05,-8.96e-06,0.0,0 STARLINK-3258,1 50206U 21125BC  24050.87898742 -.00000896  00000-0 -38239-4 0  9992,2 50206  53.2187   0.5563 0001632 101.1464 258.9712 15.08832773121618,6917.902,95.438,540.896,538.638,0.0
50206.0,STARLINK-3258,PAYLOAD,2024-02-20 03:27:17,15.08830984,0.0001499,53.2197,359.3697,94.8862,265.2302,4.9243e-06,-2.1e-06,0.0,0 STARLINK-3258,1 50206U 21125BC  24051.14395144 -.00000210  00000-0  49243-5 0  9998,2 50206  53.2197 359.3697 0001499  94.8862 265.2302 15.08830984121655,6917.908,95.438,540.81,538.736,0.0
50206.0,STARLINK-3258,PAYLOAD,2024-02-20 12:59:35,15.08833979,0.0001326,53.2177,357.5831,87.535,272.5794,-9.9067e-05,-1.864e-05,0.0,0 STARLINK-3258,1 50206U 21125BC  24051.54138667 -.00001864  00000-0 -99067-4 0  9992,2 50206  53.2177 357.5831 0001326  87.5350 272.5794 15.08833979121713,6917.899,95.438,540.681,538.846,0.0
50206.0,STARLINK-3258,PAYLOAD,2024-02-21 03:18:03,15.08841239,0.0001346,53.2182,354.9053,81.3808,278.7336,9.4855e-05,1.222e-05,0.0,0 STARLINK-3258,1 50206U 21125BC  24052.13754545  .00001222  00000-0  94855-4 0  9993,2 50206  53.2182 354.9053 0001346  81.3808 278.7336 15.08841239121806,6917.877,95.437,540.673,538.81,0.0
50206.0,STARLINK-3258,PAYLOAD,2024-02-21 12:50:22,15.08843351,0.0001794,53.219,353.1238,80.1584,279.9611,7.838e-05,9.6e-06,0.0,0 STARLINK-3258,1 50206U 21125BC  24052.53498491  .00000960  00000-0  78380-4 0  9995,2 50206  53.2190 353.1238 0001794  80.1584 279.9611 15.08843351121868,6917.87,95.437,540.976,538.494,0.0
50206.0,STARLINK-3258,PAYLOAD,2024-02-22 03:08:52,15.08828804,0.0001745,53.2213,350.4518,82.7994,277.3196,0.00011776,1.586e-05,0.0,0 STARLINK-3258,1 50206U 21125BC  24053.13115828  .00001586  00000-0  11776-3 0  9992,2 50206  53.2213 350.4518 0001745  82.7994 277.3196 15.08828804121950,6917.915,95.438,540.987,538.572,0.0
50206.0,STARLINK-3258,PAYLOAD,2024-02-22 12:41:10,15.08836315,0.0001633,53.2202,348.6624,81.3647,278.753,0.00011094,1.478e-05,0.0,0 STARLINK-3258,1 50206U 21125BC  24053.52859445  .00001478  00000-0  11094-3 0  9998,2 50206  53.2202 348.6624 0001633  81.3647 278.7530 15.08836315122012,6917.892,95.438,540.886,538.627,0.0
50206.0,STARLINK-3258,PAYLOAD,2024-02-23 02:59:37,15.08855682,0.000146,53.2192,345.986,96.0161,264.0998,0.00011831,1.596e-05,0.0,0 STARLINK-3258,1 50206U 21125BC  24054.12474082  .00001596  00000-0  11831-3 0  9995,2 50206  53.2192 345.9860 0001460  96.0161 264.0998 15.08855682122108,6917.832,95.437,540.707,538.687,0.0
50206.0,STARLINK-3258,PAYLOAD,2024-02-23 12:31:57,15.08837884,0.0002032,53.2206,344.2058,74.1206,286.001,-3.3622e-05,-8.23e-06,0.0,0 STARLINK-3258,1 50206U 21125BC  24054.52219243 -.00000823  00000-0 -33622-4 0  9992,2 50206  53.2206 344.2058 0002032  74.1206 286.0010 15.08837884122167,6917.887,95.438,541.158,538.346,0.0
50206.0,STARLINK-3258,PAYLOAD,2024-02-23 18:53:30,15.08834198,0.0001933,53.22,343.016,79.6307,280.4903,0.00012843,1.756e-05,0.0,0 STARLINK-3258,1 50206U 21125BC  24054.78715775  .00001756  00000-0  12843-3 0  9996,2 50206  53.2200 343.0160 0001933  79.6307 280.4903 15.08834198122202,6917.898,95.438,541.1,538.426,0.0
50206.0,STARLINK-3258,PAYLOAD,2024-02-24 04:25:48,15.08841331,0.0001541,53.2176,341.2284,81.5692,278.5474,0.000104,1.368e-05,0.0,0 STARLINK-3258,1 50206U 21125BC  24055.18459258  .00001368  00000-0  10400-3 0  9998,2 50206  53.2176 341.2284 0001541  81.5692 278.5474 15.08841331122269,6917.876,95.437,540.807,538.675,0.0
50206.0,STARLINK-3258,PAYLOAD,2024-02-24 12:22:44,15.08843919,0.0001587,53.2177,339.7428,79.683,280.4341,0.00019702,2.849e-05,0.0,0 STARLINK-3258,1 50206U 21125BC  24055.51579182  .00002849  00000-0  19702-3 0  9993,2 50206  53.2177 339.7428 0001587  79.6830 280.4341 15.08843919122319,6917.868,95.437,540.831,538.636,0.0
50206.0,STARLINK-3258,PAYLOAD,2024-02-25 21:45:49,15.08859014,0.000153,53.2172,333.4966,86.043,274.0737,9.654e-05,1.25e-05,0.0,0 STARLINK-3258,1 50206U 21125BC  24056.90682270  .00001250  00000-0  96540-4 0  9991,2 50206  53.2172 333.4966 0001530  86.0430 274.0737 15.08859014122522,6917.822,95.436,540.746,538.629,0.0
50206.0,STARLINK-3258,PAYLOAD,2024-02-26 04:07:22,15.08860518,0.0001527,53.218,332.3092,74.9944,285.1217,0.00045413,6.951e-05,0.0,0 STARLINK-3258,1 50206U 21125BC  24057.17178329  .00006951  00000-0  45413-3 0  9991,2 50206  53.2180 332.3092 0001527  74.9944 285.1217 15.08860518122562,6917.818,95.436,540.739,538.626,0.0
50206.0,STARLINK-3258,PAYLOAD,2024-02-26 18:25:51,15.0883407,0.0001078,53.2191,329.6342,63.8586,296.2517,-8.1557e-05,-1.585e-05,0.0,0 STARLINK-3258,1 50206U 21125BC  24057.76795241 -.00001585  00000-0 -81557-4 0  9994,2 50206  53.2191 329.6342 0001078  63.8586 296.2517 15.08834070122651,6917.899,95.438,540.509,539.018,0.0
50206.0,STARLINK-3258,PAYLOAD,2024-02-26 21:36:37,15.0883678,0.0001424,53.218,329.0398,74.7234,285.3916,-3.0452e-05,-7.73e-06,0.0,0 STARLINK-3258,1 50206U 21125BC  24057.90043230 -.00000773  00000-0 -30452-4 0  9990,2 50206  53.2180 329.0398 0001424  74.7234 285.3916 15.08836780122674,6917.89,95.438,540.74,538.77,0.0
50206.0,STARLINK-3258,PAYLOAD,2024-02-27 00:47:23,15.08839304,0.0001495,53.218,328.442,86.2788,273.8375,-4.5103e-06,-3.6e-06,0.0,0 STARLINK-3258,1 50206U 21125BC  24058.03291034 -.00000360  00000-0 -45103-5 0  9994,2 50206  53.2180 328.4420 0001495  86.2788 273.8375 15.08839304122691,6917.883,95.438,540.782,538.713,0.0
50206.0,STARLINK-3258,PAYLOAD,2024-02-27 21:27:24,15.08839797,0.0001548,53.2177,324.5775,98.0963,262.0205,8.8981e-05,1.128e-05,0.0,0 STARLINK-3258,1 50206U 21125BC  24058.89403299  .00001128  00000-0  88981-4 0  9997,2 50206  53.2177 324.5775 0001548  98.0963 262.0205 15.08839797122825,6917.881,95.438,540.817,538.675,0.0
50206.0,STARLINK-3258,PAYLOAD,2024-02-28 10:10:29,15.08837248,0.0001427,53.2172,322.2006,92.6919,267.4237,0.00020296,2.943e-05,0.0,0 STARLINK-3258,1 50206U 21125BC  24059.42395679  .00002943  00000-0  20296-3 0  9999,2 50206  53.2172 322.2006 0001427  92.6919 267.4237 15.08837248122901,6917.889,95.438,540.741,538.767,0.0
50206.0,STARLINK-3258,PAYLOAD,2024-02-28 22:53:34,15.0884167,0.0001417,53.2173,319.8228,100.713,259.4022,0.00022734,3.332e-05,0.0,0 STARLINK-3258,1 50206U 21125BC  24059.95387571  .00003332  00000-0  22734-3 0  9991,2 50206  53.2173 319.8228 0001417 100.7130 259.4022 15.08841670122980,6917.875,95.437,540.721,538.76,0.0
50206.0,STARLINK-3258,PAYLOAD,2024-02-29 10:01:16,15.0884361,0.0001353,53.2171,317.741,98.6221,261.4924,0.00020323,2.948e-05,0.0,0 STARLINK-3258,1 50206U 21125BC  24060.41755482  .00002948  00000-0  20323-3 0  9998,2 50206  53.2171 317.7410 0001353  98.6221 261.4924 15.08843610123052,6917.869,95.437,540.67,538.798,0.0
50206.0,STARLINK-3258,PAYLOAD,2024-02-29 21:08:58,15.08836628,0.000136,53.2176,315.6599,100.2249,259.8897,-1.0936e-05,-4.62e-06,0.0,0 STARLINK-3258,1 50206U 21125BC  24060.88123733 -.00000462  00000-0 -10936-4 0  9998,2 50206  53.2176 315.6599 0001360 100.2249 259.8897 15.08836628123129,6917.891,95.438,540.697,538.815,0.0
50206.0,STARLINK-3258,PAYLOAD,2024-02-29 22:44:22,15.08837408,0.0001368,53.2176,315.3625,99.6536,260.461,2.886e-05,1.71e-06,0.0,0 STARLINK-3258,1 50206U 21125BC  24060.94747814  .00000171  00000-0  28860-4 0  9997,2 50206  53.2176 315.3625 0001368  99.6536 260.4610 15.08837408123133,6917.888,95.438,540.7,538.807,0.0
50206.0,STARLINK-3258,PAYLOAD,2024-03-01 09:52:03,15.08840357,0.0001349,53.2171,313.2785,90.0982,270.0164,6.6241e-05,7.66e-06,0.0,0 STARLINK-3258,1 50206U 21125BC  24061.41115678  .00000766  00000-0  66241-4 0  9992,2 50206  53.2171 313.2785 0001349  90.0982 270.0164 15.08840357123207,6917.879,95.438,540.678,538.811,0.0
